OBJECT_NAME,OBJECT_ID,EPOCH,MEAN_MOTION,ECCENTRICITY,INCLINATION,RA_OF_ASC_NODE,ARG_OF_PERICENTER,MEAN_ANOMALY,EPHEMERIS_TYPE,CLASSIFICATION_TYPE,NORAD_CAT_ID,ELEMENT_SET_NO,REV_AT_EPOCH,BSTAR,MEAN_MOTION_DOT,MEAN_MOTION_DDOT
ONEWEB-0541,2023-004C,2024-07-28T05:20:21.214464,13.11417710,.0002115,87.8992,158.1964,81.4044,278.7323,0,U,55142,999,7565,.13116E-2,.478E-5,0
ONEWEB-0543,2023-004D,2024-07-28T10:23:53.232864,13.18686260,.0001964,87.9136,112.6655,66.4401,293.6937,0,U,55143,999,7892,.23231E-3,.105E-5,0
ONEWEB-0544,2023-004E,2024-07-28T10:14:44.066688,13.18698073,.0001743,87.9141,112.6517,72.8747,287.2576,0,U,55144,999,7892,-.60728E-2,-.2381E-4,0
ONEWEB-0560,2023-004F,2024-07-28T11:54:55.212768,13.18688376,.0001605,87.9142,112.5918,67.9702,292.1600,0,U,55145,999,7894,.72979E-5,.16E-6,0
ONEWEB-0565,2023-004G,2024-07-28T11:45:49.124160,13.18685945,.0001382,87.9136,112.6693,92.5798,267.5492,0,U,55146,999,7893,.12815E-4,.18E-6,0
ONEWEB-0567,2023-004H,2024-07-28T18:53:45.970368,13.18686730,.0001398,87.9138,112.5638,79.0596,281.0694,0,U,55147,999,7897,.52372E-4,.34E-6,0
ONEWEB-0569,2023-004J,2024-07-28T10:30:33.731424,13.13471442,.0000769,87.8911,97.2864,62.3965,297.7242,0,U,55148,999,7976,.78576E-3,.3E-5,0
ONEWEB-0570,2023-004K,2024-07-28T04:01:27.593472,13.18686005,.00021,87.9141,112.6848,99.7411,260.3958,0,U,55149,999,7888,.13498E-3,.66E-6,0
ONEWEB-0571,2023-004L,2024-07-28T11:09:23.112576,13.18688084,.0001093,87.9141,112.6318,105.1277,254.9976,0,U,55150,999,7893,.35979E-4,.27E-6,0
ONEWEB-0572,2023-004M,2024-07-28T07:44:34.451808,13.17651603,.0001988,87.9191,143.0391,84.8987,275.2371,0,U,55151,999,7676,.12395E-3,.61E-6,0
ONEWEB-0573,2023-004N,2024-07-28T11:00:17.844768,13.18685508,.0001451,87.9137,112.6521,107.8178,252.3113,0,U,55152,999,7892,.14195E-3,.69E-6,0
ONEWEB-0588,2023-004P,2024-07-28T05:23:24.537984,13.18685827,.0001931,87.9143,112.6672,94.5694,265.5658,0,U,55153,999,7889,.35275E-3,.152E-5,0
ONEWEB-0598,2023-004Q,2024-07-28T02:58:43.511808,13.11411286,.00014,87.8992,158.2555,87.6275,272.5013,0,U,55154,999,7559,-.18196E-2,-.632E-5,0
ONEWEB-0599,2023-004R,2024-07-28T08:38:05.399808,13.17650671,.0001894,87.9197,143.0181,75.1944,284.9397,0,U,55155,999,7677,.15276E-3,.72E-6,0
ONEWEB-0614,2023-004S,2024-07-28T02:51:24.124608,13.11417977,.0002471,87.8990,158.2606,85.9527,274.1883,0,U,55156,999,7554,-.1436E-2,-.496E-5,0
ONEWEB-0616,2023-004T,2024-07-28T13:17:16.282752,13.17648418,.0002223,87.9192,142.9858,46.2765,313.8551,0,U,55157,999,7701,.1111E-3,.56E-6,0
ONEWEB-0617,2023-004U,2024-07-28T09:53:46.869792,13.11416524,.0002259,87.8987,158.1963,92.0055,268.1331,0,U,55158,999,7559,-.62898E-3,-.21E-5,0
ONEWEB-0618,2023-004V,2024-07-28T03:14:50.071200,14.26810848,.0014395,86.9035,78.8100,143.8913,216.3254,0,U,55159,999,8118,.48632E-4,.137E-5,0
ONEWEB-0619,2023-004W,2024-07-28T04:57:04.209408,13.17649442,.0002466,87.9192,143.0315,68.4812,291.6582,0,U,55160,999,7686,-.173E-4,.6E-7,0
ONEWEB-0620,2023-004X,2024-07-28T09:46:27.309792,13.11413670,.0002063,87.8990,158.2086,94.5493,265.5870,0,U,55161,999,7555,-.26121E-3,-.8E-6,0
ONEWEB-0621,2023-004Y,2024-07-28T03:06:03.206592,13.11418816,.0002367,87.8987,158.2314,79.0791,281.0603,0,U,55162,999,7552,-.7617E-3,-.257E-5,0
ONEWEB-0622,2023-004Z,2024-07-28T12:22:42.394080,13.11418697,.0002579,87.8991,158.1717,99.7038,260.4382,0,U,55163,999,7554,-.50904E-3,-.168E-5,0
ONEWEB-0623,2023-004AA,2024-07-28T12:07:28.705440,13.17648497,.0002722,87.9194,143.0261,92.4491,267.6952,0,U,55164,999,7689,.23855E-3,.106E-5,0
ONEWEB-0624,2023-004AB,2024-07-28T05:44:53.991456,13.12443851,.0002187,87.8958,127.8539,80.6535,279.4841,0,U,55165,999,7768,.42095E-3,.164E-5,0
ONEWEB-0625,2023-004AC,2024-07-28T08:12:30.082176,13.17651969,.000218,87.9193,143.0569,71.8464,288.2905,0,U,55166,999,7686,.22296E-3,.99E-6,0
ONEWEB-0626,2023-004AD,2024-07-28T04:19:50.727072,13.17650652,.0001659,87.9192,143.0892,90.6687,269.4635,0,U,55167,999,7684,.15592E-3,.73E-6,0
ONEWEB-0627,2023-004AE,2024-07-28T13:10:18.626016,13.17650003,.0002481,87.9193,143.0176,94.0870,266.0545,0,U,55168,999,7689,-.69385E-4,-.14E-6,0
ONEWEB-0628,2023-004AF,2024-07-28T12:35:59.505792,13.12444023,.0002785,87.8953,127.7843,86.5777,273.5670,0,U,55169,999,7770,.17E-3,.74E-6,0
ONEWEB-0629,2023-004AG,2024-07-28T02:08:22.734528,13.17647171,.0002524,87.9186,143.0976,77.0165,283.1248,0,U,55170,999,7683,-.50035E-4,-.7E-7,0
ONEWEB-0631,2023-004AH,2024-07-28T05:14:18.597120,13.18686209,.0001721,87.9146,112.5768,98.0979,262.0348,0,U,55171,999,7887,.19376E-3,.89E-6,0
ONEWEB-0709,2023-004AJ,2024-07-28T13:11:33.229824,13.11414964,.0001137,87.8988,158.1828,100.6034,259.5222,0,U,55172,999,7562,.11638E-2,.425E-5,0
ONEWEB-0710,2023-004AK,2024-07-28T05:38:58.043328,13.17648341,.0002003,87.9189,143.0812,83.2900,276.8460,0,U,55173,999,7685,.13374E-3,.65E-6,0
ONEWEB-0711,2023-004AL,2024-07-28T03:20:41.428896,13.11419129,.0002831,87.8992,158.2329,94.0512,266.0940,0,U,55174,999,7553,-.35559E-3,-.113E-5,0
ONEWEB-0713,2023-004AM,2024-07-28T20:16:22.340928,13.11420655,.0002405,87.8990,158.1016,87.1983,272.9420,0,U,55175,999,7560,.15677E-2,.568E-5,0
ONEWEB-0715,2023-004AN,2024-07-28T05:30:06.303168,13.11419284,.0001893,87.8990,158.2234,90.9921,269.1424,0,U,55176,999,7557,.1862E-2,.673E-5,0
ONEWEB-0716,2023-004AP,2024-07-28T12:47:01.665888,13.17649315,.0002118,87.9193,143.0148,74.4814,285.6551,0,U,55177,999,7689,-.94728E-5,.9E-7,0
ONEWEB-0717,2023-004AQ,2024-07-28T12:21:26.186688,13.17649077,.0002542,87.9190,142.9819,99.5372,260.6047,0,U,55178,999,7694,.17843E-3,.82E-6,0
ONEWEB-0719,2023-004AR,2024-07-28T05:20:20.276160,13.17650663,.0002358,87.9190,143.0262,75.5110,284.6283,0,U,55179,999,7685,.1962E-3,.89E-6,0
APSTAR-6E,2023-005A,2024-07-26T23:13:25.855968,1.00271872,.0002259,0.0376,91.3427,7.5510,328.6318,0,U,55239,999,1193,0,-.32E-5,0
SHIYAN 22B (SY-22B),2023-006B,2024-07-28T16:58:42.471264,15.32685999,.0019026,43.1881,299.4940,321.3778,38.5717,0,U,55243,999,8579,.60006E-3,.19212E-3,0
YAOGAN-37,2023-006C,2024-07-28T19:49:57.570528,15.16412678,.0008839,43.1994,331.2520,240.5614,119.4354,0,U,55244,999,8538,.50373E-3,.9752E-4,0
LINUSS1,2022-144G,2024-07-26T22:42:21.204000,0.99054287,.0007138,3.6825,67.7603,312.3492,291.1761,0,U,55246,999,482,0,-.34E-6,0
LINUSS2,2022-144H,2024-07-27T22:42:38.316384,0.99052056,.0006088,3.6846,67.7426,329.5290,267.2039,0,U,55247,999,486,0,-.81E-6,0
2023-007A,2023-007A,2024-07-28T20:14:02.314176,15.41319194,.0008346,97.3119,282.2940,351.6661,8.4446,0,U,55248,999,8562,.72445E-3,.30218E-3,0
2023-007B,2023-007B,2024-07-28T19:52:41.613888,15.56254855,.0002521,97.3111,287.3387,9.7842,350.3461,0,U,55249,999,8595,.91604E-3,.64629E-3,0
2023-007E,2023-007E,2024-07-28T21:09:30.173472,15.54577730,.0003998,97.3082,286.1928,103.3953,256.7747,0,U,55252,999,8590,.10042E-2,.66664E-3,0
2023-007F,2023-007F,2024-07-28T20:17:09.922272,15.39214223,.0007915,97.3098,281.2202,317.5298,42.5335,0,U,55253,999,8556,.70665E-3,.27487E-3,0
2023-007G,2023-007G,2024-07-28T20:59:58.167456,15.58596534,.0003005,97.3097,288.0620,76.5327,283.6264,0,U,55254,999,8600,.10515E-2,.81125E-3,0
2023-007K,2023-007K,2024-07-28T21:07:25.965696,15.49465474,.0006207,97.3159,287.9760,77.8776,282.3170,0,U,55257,999,8600,.64318E-3,.35413E-3,0
2023-007L,2023-007L,2024-07-28T20:36:48.471840,15.53422109,.000992,97.3134,288.9730,108.9361,251.2969,0,U,55258,999,8606,.8856E-3,.5639E-3,0
2023-007M,2023-007M,2024-07-28T20:55:30.079488,15.54661999,.00052,97.3065,289.2188,88.6584,271.5266,0,U,55259,999,8611,.7045E-3,.46777E-3,0
2023-007P,2023-007P,2024-07-28T20:26:47.129568,15.64972808,.000462,97.3067,291.7184,103.6913,256.4862,0,U,55261,999,8627,.84726E-3,.83596E-3,0
NAVSTAR 82 (USA 343),2023-009A,2024-07-28T03:46:42.745152,2.00561420,.0000795,55.0898,175.5614,68.8084,105.7420,0,U,55268,999,1141,0,.68E-6,0
STARLINK-5277,2023-010A,2024-07-28T09:32:55.798656,14.98327233,.0003006,69.9995,90.3540,272.0487,88.0328,0,U,55269,999,8420,-.78196E-4,-.1026E-4,0
STARLINK-5301,2023-010B,2024-07-28T01:50:17.427840,14.98325071,.0003129,69.9997,91.2392,274.7474,85.3328,0,U,55270,999,8415,-.27484E-4,-.421E-5,0
STARLINK-5306,2023-010C,2024-07-28T01:38:15.751104,14.98329489,.0003452,69.9984,91.2098,271.2289,88.8475,0,U,55271,999,8415,-.59853E-4,-.807E-5,0
STARLINK-5310,2023-010D,2024-07-28T01:56:29.825664,14.98327127,.0003088,70.0008,90.8602,269.6478,90.4327,0,U,55272,999,8416,-.54906E-4,-.748E-5,0
STARLINK-5291,2023-010E,2024-07-28T02:14:17.792736,14.98327927,.0002555,70.0001,90.9003,260.4132,99.6739,0,U,55273,999,8416,.30586E-3,.3558E-4,0
STARLINK-5236,2023-010F,2024-07-28T01:19:54.787008,14.98327123,.000289,69.9997,71.3010,258.5765,101.5069,0,U,55274,999,8463,-.49794E-4,-.687E-5,0
STARLINK-5260,2023-010G,2024-07-28T01:08:07.653984,14.98327192,.0003339,69.9994,71.2701,266.4977,93.5800,0,U,55275,999,8463,-.31784E-4,-.472E-5,0
STARLINK-5261,2023-010H,2024-07-28T01:07:53.423904,14.98327240,.0003053,69.9994,71.2694,268.4299,91.6510,0,U,55276,999,8464,-.31433E-4,-.468E-5,0
STARLINK-5299,2023-010J,2024-07-28T01:20:14.011872,14.98328903,.0002878,69.9998,91.1669,266.6336,93.4494,0,U,55277,999,8415,.35627E-4,.332E-5,0
STARLINK-5289,2023-010K,2024-07-28T02:32:19.406688,14.98328733,.0003097,70.0000,90.9387,274.7854,85.2951,0,U,55278,999,8416,-.29434E-4,-.444E-5,0
STARLINK-5323,2023-010L,2024-07-28T20:27:49.919040,14.98322471,.0003167,69.9993,89.1314,267.1269,92.9528,0,U,55279,999,8426,.1004E-3,.1105E-4,0
STARLINK-5331,2023-010M,2024-07-28T02:20:32.140608,14.98331149,.0003317,69.9992,90.9074,267.2087,92.8693,0,U,55280,999,8415,.21321E-4,.161E-5,0
STARLINK-5298,2023-010N,2024-07-28T02:44:21.117120,14.98324442,.0003129,69.9995,90.9679,270.7143,89.3658,0,U,55281,999,8416,-.61974E-4,-.832E-5,0
STARLINK-5330,2023-010P,2024-07-28T02:08:31.152480,14.98327262,.0002995,69.9995,90.8797,266.9472,93.1345,0,U,55282,999,8416,-.25296E-4,-.395E-5,0
STARLINK-5317,2023-010Q,2024-07-28T09:02:52.400832,14.98326499,.000277,70.0003,90.2808,274.5256,85.5586,0,U,55283,999,8420,.95761E-4,.105E-4,0
